{"type": "FeatureCollection", "features": [{"type": "Feature", "properties": {"name": "Batticaloa", "id": "batticaloa", "province": "Eastern"}, "geometry": {"type": "MultiPolygon", "coordinates": [[[[81.81019, 7.49074], [81.79542, 7.47882], [81.77489, 7.49616], [81.77777, 7.57129], [81.77489, 7.59332], [81.7259, 7.6605], [81.71221, 7.69879], [81.71725, 7.72841], [81.72518, 7.72769], [81.74643, 7.68543], [81.75796, 7.65472], [81.79362, 7.59838], [81.81091, 7.51097], [81.81019, 7.49074]]], [[[81.22913, 7.73852], [81.21508, 7.81618], [81.22372, 7.89312], [81.23129, 7.92237], [81.25362, 7.93754], [81.28208, 7.94152], [81.32747, 7.93754], [81.31919, 7.97475], [81.30226, 8.01123], [81.29505, 8.04807], [81.30298, 8.20627], [81.29757, 8.25865], [81.31414, 8.26443], [81.40348, 8.25504], [81.42762, 8.17449], [81.43555, 8.12898], [81.41753, 8.10405], [81.40601, 8.15101], [81.39052, 8.19291], [81.38331, 8.19291], [81.38187, 8.14343], [81.3952, 8.13078], [81.40492, 8.10658], [81.42258, 8.09394], [81.43951, 8.09539], [81.44527, 8.11706], [81.45932, 8.10225], [81.46761, 8.06613], [81.49426, 8.0282], [81.50687, 8.00003], [81.52092, 8.01412], [81.52705, 7.98703], [81.54758, 8.00003], [81.55298, 7.98739], [81.54758, 7.95885], [81.55478, 7.94549], [81.58252, 7.91804], [81.56883, 7.91154], [81.56307, 7.88986], [81.5746, 7.85555], [81.59549, 7.83207], [81.62359, 7.83568], [81.64088, 7.79812], [81.68375, 7.75297], [81.6978, 7.7313], [81.70032, 7.71179], [81.67835, 7.70493], [81.6679, 7.71215], [81.63043, 7.75405], [81.60017, 7.75911], [81.58973, 7.74827], [81.58288, 7.72624], [81.6063, 7.71902], [81.62359, 7.7331], [81.64629, 7.72335], [81.65097, 7.70493], [81.68807, 7.66845], [81.69888, 7.65039], [81.6924, 7.63847], [81.69888, 7.62222], [81.7014, 7.64353], [81.71329, 7.63955], [81.74175, 7.61427], [81.76048, 7.56768], [81.75364, 7.54022], [81.76048, 7.52361], [81.74535, 7.50483], [81.76733, 7.4716], [81.7576, 7.4604], [81.71113, 7.45245], [81.65601, 7.40152], [81.64881, 7.41778], [81.64556, 7.47485], [81.63764, 7.49941], [81.63728, 7.52433], [81.61386, 7.51133], [81.54758, 7.5041], [81.48202, 7.5153], [81.46472, 7.53156], [81.43338, 7.55034], [81.42222, 7.58212], [81.43194, 7.61102], [81.43338, 7.64136], [81.37142, 7.65581], [81.34909, 7.67676], [81.31487, 7.72624], [81.28821, 7.73491], [81.25615, 7.7331], [81.22913, 7.73852]]]]}}, {"type": "Feature", "properties": {"name": "Mannar", "id": "mannar", "province": "Northern"}, "geometry": {"type": "MultiPolygon", "coordinates": [[[[79.87607, 9.05834], [79.90993, 9.02511], [79.8649, 9.04317], [79.84797, 9.04606], [79.89408, 8.99332], [79.90309, 8.97743], [79.87931, 8.98032], [79.85301, 9.00561], [79.83464, 9.01716], [79.79393, 9.05364], [79.75323, 9.07207], [79.69775, 9.08507], [79.69595, 9.10421], [79.70892, 9.10855], [79.75323, 9.10855], [79.79321, 9.09807], [79.83572, 9.08182], [79.87607, 9.05834]]], [[[80.33105, 8.96226], [80.35807, 8.94962], [80.37356, 8.92506], [80.38869, 8.88641], [80.38365, 8.85137], [80.32997, 8.83187], [80.27377, 8.82501], [80.23775, 8.82898], [80.21001, 8.81345], [80.19524, 8.77986], [80.1693, 8.77733], [80.16534, 8.74952], [80.18912, 8.73146], [80.22658, 8.68306], [80.12968, 8.65777], [80.08068, 8.65777], [80.03638, 8.67619], [80.0443, 8.61732], [80.04214, 8.52413], [80.02413, 8.52955], [79.97225, 8.55519], [79.94271, 8.55808], [79.90525, 8.5747], [79.93407, 8.64549], [79.94307, 8.74301], [79.9193, 8.8055], [79.92326, 8.88822], [79.91786, 8.92361], [79.90885, 8.9424], [79.94019, 8.95251], [79.99819, 9.00452], [80.0407, 9.03017], [80.05943, 9.07965], [80.06628, 9.11469], [80.09834, 9.1974], [80.10266, 9.21402], [80.14409, 9.21691], [80.18407, 9.24183], [80.18515, 9.20752], [80.19128, 9.17465], [80.20965, 9.14539], [80.21253, 9.13094], [80.20785, 9.10132], [80.20857, 9.05726], [80.18696, 9.04967], [80.17038, 9.00561], [80.17975, 8.98971], [80.16678, 8.95395], [80.33105, 8.96226]]]]}}, {"type": "Feature", "properties": {"name": "Jaffna", "id": "jaffna", "province": "Northern"}, "geometry": {"type": "MultiPolygon", "coordinates": [[[[79.71036, 9.49142], [79.6855, 9.48997], [79.66209, 9.49792], [79.652, 9.51056], [79.652, 9.55174], [79.66173, 9.56077], [79.67253, 9.54162], [79.71504, 9.53079], [79.72657, 9.50659], [79.71036, 9.49142]]], [[[79.82239, 9.60592], [79.84149, 9.60375], [79.83644, 9.61964], [79.85481, 9.61206], [79.8559, 9.57738], [79.84365, 9.57088], [79.81123, 9.57774], [79.80474, 9.58677], [79.80618, 9.62398], [79.81519, 9.62398], [79.82239, 9.60592]]], [[[79.89804, 9.68538], [79.92146, 9.68538], [79.9283, 9.66118], [79.96793, 9.63987], [79.97225, 9.63048], [79.95244, 9.62325], [79.92146, 9.6359], [79.89084, 9.62398], [79.87535, 9.63517], [79.86022, 9.65793], [79.83608, 9.70633], [79.84725, 9.72331], [79.85626, 9.76304], [79.8894, 9.76412], [79.88363, 9.73053], [79.88544, 9.70489], [79.89804, 9.68538]]], [[[80.44561, 9.54379], [80.433, 9.58208], [80.43516, 9.58858], [80.39914, 9.607], [80.31196, 9.67852], [80.24063, 9.76123], [80.20425, 9.78074], [80.14733, 9.79446], [80.1322, 9.8053], [80.1304, 9.82047], [80.15129, 9.8295], [80.21974, 9.836], [80.25324, 9.82264], [80.26261, 9.78977], [80.27161, 9.77604], [80.4013, 9.62289], [80.4593, 9.58677], [80.616, 9.45963], [80.60988, 9.45457], [80.60447, 9.45096], [80.60447, 9.45096], [80.60447, 9.45096], [80.60447, 9.45096], [80.53711, 9.4972], [80.48703, 9.51562], [80.46254, 9.53332], [80.44741, 9.53368], [80.44561, 9.54379]]], [[[80.60483, 9.45096], [80.60447, 9.45096], [80.60447, 9.45096], [80.60447, 9.45096], [80.60447, 9.45096], [80.60447, 9.45096], [80.60483, 9.45096]]], [[[80.28314, 9.68646], [80.26945, 9.65793], [80.24856, 9.62109], [80.16678, 9.65468], [80.16894, 9.63012], [80.19272, 9.60483], [80.17903, 9.58966], [80.14589, 9.60917], [80.10914, 9.64168], [80.08753, 9.65071], [80.12896, 9.60953], [80.08105, 9.62434], [80.03349, 9.65107], [79.99531, 9.68105], [79.95388, 9.69947], [79.94199, 9.69983], [79.93191, 9.73414], [79.90489, 9.77532], [79.9265, 9.78579], [79.96577, 9.82191], [79.98342, 9.82986], [80.06087, 9.82264], [80.11599, 9.82553], [80.12391, 9.78363], [80.16426, 9.77351], [80.17363, 9.76195], [80.20425, 9.76701], [80.21541, 9.76051], [80.28314, 9.68646]]]]}}, {"type": "Feature", "properties": {"name": "Kilinochchi", "id": "kilinochchi", "province": "Northern"}, "geometry": {"type": "MultiPolygon", "coordinates": [[[[79.97874, 9.2859], [79.96541, 9.29781], [79.9773, 9.30973], [79.9863, 9.29998], [79.97874, 9.2859]]], [[[80.60483, 9.45096], [80.59799, 9.42929], [80.57637, 9.41304], [80.57637, 9.36716], [80.55368, 9.37945], [80.52198, 9.40401], [80.50793, 9.35886], [80.49136, 9.34947], [80.40742, 9.34983], [80.39049, 9.30648], [80.36419, 9.30432], [80.31016, 9.30865], [80.23379, 9.29998], [80.20785, 9.26639], [80.21037, 9.23858], [80.18407, 9.24183], [80.14409, 9.21691], [80.10266, 9.21402], [80.10878, 9.23858], [80.10914, 9.31118], [80.07024, 9.32779], [80.05943, 9.33755], [80.05151, 9.35994], [80.04646, 9.39678], [80.08032, 9.42026], [80.134, 9.43543], [80.15561, 9.46433], [80.18984, 9.47878], [80.16894, 9.51164], [80.13508, 9.54054], [80.06159, 9.58388], [80.04682, 9.6023], [80.07888, 9.60122], [80.10914, 9.58894], [80.16894, 9.55427], [80.22586, 9.53982], [80.26441, 9.50948], [80.27017, 9.49864], [80.25828, 9.4925], [80.25792, 9.47191], [80.27882, 9.45783], [80.32817, 9.46975], [80.41787, 9.50514], [80.44201, 9.50298], [80.49496, 9.48817], [80.55728, 9.45999], [80.60447, 9.45096], [80.60483, 9.45096]]], [[[80.44741, 9.53368], [80.42003, 9.52284], [80.40706, 9.53259], [80.36023, 9.53548], [80.28962, 9.59689], [80.24856, 9.62109], [80.26945, 9.65793], [80.28314, 9.68646], [80.33033, 9.63481], [80.36131, 9.61531], [80.433, 9.58208], [80.44561, 9.54379], [80.44741, 9.53368]]]]}}, {"type": "Feature", "properties": {"name": "Kandy", "id": "kandy", "province": "Central"}, "geometry": {"type": "Polygon", "coordinates": [[[80.55476, 7.4557], [80.57529, 7.42753], [80.6387, 7.3878], [80.67544, 7.38563], [80.69669, 7.40911], [80.69345, 7.44595], [80.69958, 7.46148], [80.71327, 7.47015], [80.72804, 7.46437], [80.7655, 7.43367], [80.79396, 7.43801], [80.82566, 7.46401], [80.86673, 7.46365], [80.8833, 7.4716], [80.89519, 7.45679], [80.92004, 7.48496], [80.94022, 7.48785], [80.97192, 7.4846], [80.98092, 7.3329], [81.0029, 7.2603], [81.0011, 7.22779], [80.97408, 7.20287], [80.93986, 7.18914], [80.89843, 7.19745], [80.85556, 7.19131], [80.81918, 7.1942], [80.79612, 7.23032], [80.77703, 7.23501], [80.74533, 7.26969], [80.75757, 7.20287], [80.7374, 7.16891], [80.67292, 7.0927], [80.63653, 7.09703], [80.60735, 7.07681], [80.58718, 7.07247], [80.55116, 7.07681], [80.52846, 7.05875], [80.54431, 7.05802], [80.56196, 7.02552], [80.58862, 6.99518], [80.57673, 6.96159], [80.55512, 6.93883], [80.52594, 6.95617], [80.48127, 7.02263], [80.45245, 7.02516], [80.46038, 7.06055], [80.43804, 7.10932], [80.44921, 7.11979], [80.48379, 7.12521], [80.49964, 7.14218], [80.52162, 7.14543], [80.53495, 7.17108], [80.50901, 7.19998], [80.51117, 7.23248], [80.49892, 7.24729], [80.46506, 7.26716], [80.46686, 7.28666], [80.42363, 7.32459], [80.41138, 7.35529], [80.44993, 7.35818], [80.45858, 7.4008], [80.47263, 7.4008], [80.48812, 7.3896], [80.50541, 7.38852], [80.50541, 7.41019], [80.51982, 7.41814], [80.54503, 7.42103], [80.53098, 7.4474], [80.55476, 7.4557]]]}}, {"type": "Feature", "properties": {"name": "Matale", "id": "matale", "province": "Central"}, "geometry": {"type": "Polygon", "coordinates": [[[80.97192, 7.4846], [80.94022, 7.48785], [80.92004, 7.48496], [80.89519, 7.45679], [80.8833, 7.4716], [80.86673, 7.46365], [80.82566, 7.46401], [80.79396, 7.43801], [80.7655, 7.43367], [80.72804, 7.46437], [80.71327, 7.47015], [80.69958, 7.46148], [80.69345, 7.44595], [80.69669, 7.40911], [80.67544, 7.38563], [80.6387, 7.3878], [80.57529, 7.42753], [80.55476, 7.4557], [80.56305, 7.48568], [80.53891, 7.53914], [80.54143, 7.56045], [80.55944, 7.58176], [80.56232, 7.61463], [80.54395, 7.63233], [80.53567, 7.69698], [80.52666, 7.72407], [80.50289, 7.7732], [80.48667, 7.78042], [80.48848, 7.81437], [80.50973, 7.82991], [80.54323, 7.84255], [80.56088, 7.86386], [80.58898, 7.85519], [80.62465, 7.88625], [80.62176, 7.89781], [80.64446, 7.92562], [80.6495, 7.9603], [80.66715, 7.95849], [80.70534, 7.99425], [80.74497, 8.01231], [80.76766, 7.98811], [80.7673, 7.97041], [80.78135, 7.96138], [80.80008, 7.97764], [80.84187, 7.96247], [80.81197, 7.93104], [80.79972, 7.86061], [80.78459, 7.80571], [80.75577, 7.7992], [80.74893, 7.77175], [80.76262, 7.71071], [80.76082, 7.69121], [80.77054, 7.67712], [80.79684, 7.67134], [80.82206, 7.68181], [80.84187, 7.69987], [80.86565, 7.67856], [80.87213, 7.71396], [80.92581, 7.71035], [80.97768, 7.71974], [80.97696, 7.70312], [80.98633, 7.66123], [80.9766, 7.61355], [80.96723, 7.56659], [80.97192, 7.4846]]]}}, {"type": "Feature", "properties": {"name": "Nuwara Eliya", "id": "nuwaraeliya", "province": "Central"}, "geometry": {"type": "Polygon", "coordinates": [[[80.45245, 7.02516], [80.48127, 7.02263], [80.52594, 6.95617], [80.55512, 6.93883], [80.57673, 6.96159], [80.58862, 6.99518], [80.56196, 7.02552], [80.54431, 7.05802], [80.52846, 7.05875], [80.55116, 7.07681], [80.58718, 7.07247], [80.60735, 7.07681], [80.63653, 7.09703], [80.67292, 7.0927], [80.7374, 7.16891], [80.75757, 7.20287], [80.74533, 7.26969], [80.77703, 7.23501], [80.79612, 7.23032], [80.81918, 7.1942], [80.85556, 7.19131], [80.89843, 7.19745], [80.93986, 7.18914], [80.93914, 7.17108], [80.9467, 7.12846], [80.95463, 7.11798], [80.9431, 7.10029], [80.94994, 7.07536], [80.93229, 7.05225], [80.9186, 7.01504], [80.89627, 6.98217], [80.85844, 6.97387], [80.82458, 6.95075], [80.81954, 6.93088], [80.80621, 6.91571], [80.76946, 6.91571], [80.77054, 6.89982], [80.8026, 6.88393], [80.82386, 6.84131], [80.80909, 6.81747], [80.82746, 6.80699], [80.81737, 6.79254], [80.79828, 6.78785], [80.74172, 6.75823], [80.71038, 6.75426], [80.67724, 6.75534], [80.63149, 6.74992], [80.57673, 6.75715], [80.52486, 6.76907], [80.50036, 6.77087], [80.47983, 6.78677], [80.491, 6.8041], [80.48487, 6.82794], [80.4964, 6.83806], [80.48703, 6.87779], [80.46398, 6.89476], [80.4348, 6.90415], [80.42615, 6.93341], [80.43336, 6.97062], [80.42147, 6.9847], [80.44849, 7.0071], [80.45245, 7.02516]]]}}, {"type": "Feature", "properties": {"name": "Ampara", "id": "ampara", "province": "Eastern"}, "geometry": {"type": "Polygon", "coordinates": [[[81.7576, 7.4604], [81.76661, 7.45462], [81.78101, 7.46473], [81.79542, 7.40947], [81.79867, 7.43801], [81.81344, 7.47376], [81.82568, 7.45715], [81.82785, 7.43584], [81.84334, 7.41164], [81.86855, 7.32603], [81.86459, 7.09017], [81.8772, 7.03888], [81.879, 7.01793], [81.87324, 6.9782], [81.82749, 6.81855], [81.82064, 6.76256], [81.80623, 6.73439], [81.79759, 6.70477], [81.76913, 6.66035], [81.77597, 6.63578], [81.76516, 6.60689], [81.70176, 6.50611], [81.66862, 6.51659], [81.65169, 6.53573], [81.62755, 6.53826], [81.59765, 6.57474], [81.62287, 6.94316], [81.60594, 6.98001], [81.59873, 7.01865], [81.60522, 7.0573], [81.57568, 7.075], [81.54001, 7.08403], [81.51336, 7.09595], [81.4885, 7.14869], [81.50003, 7.17975], [81.53713, 7.21731], [81.51552, 7.24693], [81.51228, 7.2686], [81.49859, 7.2928], [81.47625, 7.31195], [81.47373, 7.35529], [81.46184, 7.40803], [81.46364, 7.42175], [81.45068, 7.42645], [81.46545, 7.44956], [81.44599, 7.45462], [81.39772, 7.43223], [81.38727, 7.412], [81.36314, 7.40766], [81.36998, 7.37082], [81.35413, 7.34554], [81.33396, 7.33434], [81.3091, 7.33543], [81.3091, 7.29714], [81.3145, 7.25957], [81.2756, 7.23899], [81.25903, 7.27474], [81.25543, 7.2928], [81.23525, 7.33145], [81.21436, 7.33145], [81.19959, 7.34626], [81.18842, 7.36974], [81.17473, 7.43873], [81.18302, 7.45823], [81.19346, 7.50699], [81.18986, 7.5572], [81.14555, 7.56659], [81.09656, 7.53914], [81.07531, 7.51964], [81.03496, 7.50627], [81.01046, 7.54709], [80.99461, 7.60163], [80.9766, 7.61355], [80.98633, 7.66123], [80.97696, 7.70312], [80.97768, 7.71974], [81.05189, 7.7266], [81.08827, 7.71288], [81.11781, 7.68326], [81.16609, 7.66845], [81.1895, 7.65509], [81.20895, 7.65256], [81.22769, 7.69229], [81.22481, 7.71577], [81.22913, 7.73852], [81.25615, 7.7331], [81.28821, 7.73491], [81.31487, 7.72624], [81.34909, 7.67676], [81.37142, 7.65581], [81.43338, 7.64136], [81.43194, 7.61102], [81.42222, 7.58212], [81.43338, 7.55034], [81.46472, 7.53156], [81.48202, 7.5153], [81.54758, 7.5041], [81.61386, 7.51133], [81.63728, 7.52433], [81.63764, 7.49941], [81.64556, 7.47485], [81.64881, 7.41778], [81.65601, 7.40152], [81.71113, 7.45245], [81.7576, 7.4604]]]}}, {"type": "Feature", "properties": {"name": "Polonnaruwa", "id": "polonnaruwa", "province": "North Central"}, "geometry": {"type": "Polygon", "coordinates": [[[81.22913, 7.73852], [81.22481, 7.71577], [81.22769, 7.69229], [81.20895, 7.65256], [81.1895, 7.65509], [81.16609, 7.66845], [81.11781, 7.68326], [81.08827, 7.71288], [81.05189, 7.7266], [80.97768, 7.71974], [80.92581, 7.71035], [80.87213, 7.71396], [80.86565, 7.67856], [80.84187, 7.69987], [80.82206, 7.68181], [80.79684, 7.67134], [80.77054, 7.67712], [80.76082, 7.69121], [80.76262, 7.71071], [80.74893, 7.77175], [80.75577, 7.7992], [80.78459, 7.80571], [80.79972, 7.86061], [80.81197, 7.93104], [80.84187, 7.96247], [80.80008, 7.97764], [80.78135, 7.96138], [80.7673, 7.97041], [80.76766, 7.98811], [80.74497, 8.01231], [80.74641, 8.03868], [80.76586, 8.06613], [80.74605, 8.08166], [80.74785, 8.1167], [80.75433, 8.15607], [80.7691, 8.19363], [80.77703, 8.23589], [80.7918, 8.27454], [80.83106, 8.28176], [80.87537, 8.28176], [80.88798, 8.28935], [80.89987, 8.32439], [80.91248, 8.33775], [80.92761, 8.34245], [80.93914, 8.32511], [80.97048, 8.30705], [80.9748, 8.2861], [80.98705, 8.27346], [81.0292, 8.27779], [81.10485, 8.25937], [81.1225, 8.25937], [81.19274, 8.21964], [81.19743, 8.17485], [81.1805, 8.15498], [81.18914, 8.15065], [81.21436, 8.15643], [81.23345, 8.19869], [81.23958, 8.22506], [81.26947, 8.25829], [81.29757, 8.25865], [81.30298, 8.20627], [81.29505, 8.04807], [81.30226, 8.01123], [81.31919, 7.97475], [81.32747, 7.93754], [81.28208, 7.94152], [81.25362, 7.93754], [81.23129, 7.92237], [81.22372, 7.89312], [81.21508, 7.81618], [81.22913, 7.73852]]]}}, {"type": "Feature", "properties": {"name": "Trincomalee", "id": "trincomalee", "province": "Eastern"}, "geometry": {"type": "Polygon", "coordinates": [[[81.29757, 8.25865], [81.26947, 8.25829], [81.23958, 8.22506], [81.23345, 8.19869], [81.21436, 8.15643], [81.18914, 8.15065], [81.1805, 8.15498], [81.19743, 8.17485], [81.19274, 8.21964], [81.1225, 8.25937], [81.10485, 8.25937], [81.0292, 8.27779], [80.98705, 8.27346], [80.9748, 8.2861], [80.97048, 8.30705], [80.93914, 8.32511], [80.92761, 8.34245], [80.91248, 8.33775], [80.94058, 8.43961], [80.96687, 8.46092], [80.97516, 8.47573], [80.96868, 8.49126], [80.94814, 8.51149], [80.93409, 8.54472], [80.90779, 8.58373], [80.90347, 8.60793], [80.88438, 8.62779], [80.88366, 8.64838], [80.89915, 8.68414], [80.87321, 8.74554], [80.87249, 8.78853], [80.90095, 8.83945], [80.86817, 8.87413], [80.79936, 8.91892], [80.77018, 8.91964], [80.74208, 8.90808], [80.74641, 8.92542], [80.75469, 8.93987], [80.79396, 8.95793], [80.83971, 8.96407], [80.91104, 8.99224], [80.9114, 8.97635], [80.92328, 8.96804], [80.90311, 8.94709], [80.91896, 8.93481], [80.93553, 8.93589], [80.94958, 8.9489], [80.96651, 8.98321], [81.00254, 8.93987], [81.03424, 8.88497], [81.04757, 8.8716], [81.08035, 8.85462], [81.1016, 8.80261], [81.11277, 8.79105], [81.13727, 8.77986], [81.14952, 8.75385], [81.16356, 8.70148], [81.16933, 8.71484], [81.18446, 8.70834], [81.18158, 8.69859], [81.21868, 8.65344], [81.21868, 8.63538], [81.19166, 8.61226], [81.2122, 8.61912], [81.23381, 8.57217], [81.23669, 8.54797], [81.2122, 8.54363], [81.21724, 8.55989], [81.19959, 8.5747], [81.19166, 8.55736], [81.20535, 8.52449], [81.19779, 8.50896], [81.16392, 8.53244], [81.14663, 8.53641], [81.1297, 8.52955], [81.11709, 8.51221], [81.13691, 8.50535], [81.1578, 8.52268], [81.20031, 8.47428], [81.22228, 8.46778], [81.26803, 8.46886], [81.28352, 8.47862], [81.27344, 8.5021], [81.30982, 8.51727], [81.33324, 8.50968], [81.35233, 8.48404], [81.35953, 8.44394], [81.37503, 8.39229], [81.37611, 8.3652], [81.3635, 8.37423], [81.35017, 8.4006], [81.33864, 8.40638], [81.34368, 8.36412], [81.34909, 8.35148], [81.38619, 8.34064], [81.40348, 8.25504], [81.31414, 8.26443], [81.29757, 8.25865]]]}}, {"type": "Feature", "properties": {"name": "Anuradhapura", "id": "anuradhapura", "province": "North Central"}, "geometry": {"type": "Polygon", "coordinates": [[[80.91248, 8.33775], [80.89987, 8.32439], [80.88798, 8.28935], [80.87537, 8.28176], [80.83106, 8.28176], [80.7918, 8.27454], [80.77703, 8.23589], [80.7691, 8.19363], [80.75433, 8.15607], [80.74785, 8.1167], [80.74605, 8.08166], [80.76586, 8.06613], [80.74641, 8.03868], [80.74497, 8.01231], [80.70534, 7.99425], [80.66715, 7.95849], [80.6495, 7.9603], [80.64446, 7.92562], [80.62176, 7.89781], [80.62465, 7.88625], [80.58898, 7.85519], [80.56088, 7.86386], [80.54323, 7.84255], [80.50973, 7.82991], [80.48848, 7.81437], [80.46326, 7.83857], [80.46722, 7.87361], [80.45029, 7.93718], [80.44201, 7.95127], [80.41211, 7.95813], [80.4085, 8.0152], [80.4103, 8.04048], [80.39517, 8.05276], [80.37644, 8.0524], [80.35843, 8.0636], [80.31196, 8.10405], [80.26044, 8.11959], [80.24567, 8.13042], [80.20677, 8.14306], [80.11491, 8.18532], [80.09365, 8.19724], [80.06772, 8.22361], [80.04754, 8.22289], [80.02953, 8.23625], [79.99207, 8.22867], [79.98594, 8.24637], [79.96145, 8.3475], [79.94668, 8.37568], [79.95784, 8.4006], [79.97477, 8.40818], [79.98054, 8.42444], [80.01152, 8.44972], [80.02989, 8.48801], [80.02413, 8.52955], [80.04214, 8.52413], [80.0443, 8.61732], [80.03638, 8.67619], [80.08068, 8.65777], [80.12968, 8.65777], [80.22658, 8.68306], [80.22694, 8.65019], [80.23703, 8.62201], [80.26693, 8.61009], [80.28746, 8.56278], [80.32853, 8.54797], [80.34402, 8.57542], [80.36167, 8.58336], [80.38004, 8.62635], [80.41931, 8.67728], [80.44993, 8.69136], [80.48523, 8.66933], [80.51693, 8.66969], [80.56845, 8.71231], [80.61636, 8.77336], [80.64014, 8.79214], [80.63185, 8.81814], [80.61348, 8.84162], [80.58754, 8.85065], [80.58574, 8.87268], [80.65959, 8.87521], [80.68877, 8.89544], [80.74208, 8.90808], [80.77018, 8.91964], [80.79936, 8.91892], [80.86817, 8.87413], [80.90095, 8.83945], [80.87249, 8.78853], [80.87321, 8.74554], [80.89915, 8.68414], [80.88366, 8.64838], [80.88438, 8.62779], [80.90347, 8.60793], [80.90779, 8.58373], [80.93409, 8.54472], [80.94814, 8.51149], [80.96868, 8.49126], [80.97516, 8.47573], [80.96687, 8.46092], [80.94058, 8.43961], [80.91248, 8.33775]]]}}, {"type": "Feature", "properties": {"name": "Vavuniya", "id": "vavuniya", "province": "Northern"}, "geometry": {"type": "Polygon", "coordinates": [[[80.75469, 8.93987], [80.74641, 8.92542], [80.74208, 8.90808], [80.68877, 8.89544], [80.65959, 8.87521], [80.58574, 8.87268], [80.58754, 8.85065], [80.61348, 8.84162], [80.63185, 8.81814], [80.64014, 8.79214], [80.61636, 8.77336], [80.56845, 8.71231], [80.51693, 8.66969], [80.48523, 8.66933], [80.44993, 8.69136], [80.41931, 8.67728], [80.38004, 8.62635], [80.36167, 8.58336], [80.34402, 8.57542], [80.32853, 8.54797], [80.28746, 8.56278], [80.26693, 8.61009], [80.23703, 8.62201], [80.22694, 8.65019], [80.22658, 8.68306], [80.18912, 8.73146], [80.16534, 8.74952], [80.1693, 8.77733], [80.19524, 8.77986], [80.21001, 8.81345], [80.23775, 8.82898], [80.27377, 8.82501], [80.32997, 8.83187], [80.38365, 8.85137], [80.38869, 8.88641], [80.37356, 8.92506], [80.35807, 8.94962], [80.33105, 8.96226], [80.37752, 8.99116], [80.40526, 9.01391], [80.42291, 9.04064], [80.41715, 9.09193], [80.39481, 9.10457], [80.3977, 9.11938], [80.46902, 9.12083], [80.49388, 9.10493], [80.50901, 9.08218], [80.53351, 9.09302], [80.56989, 9.1183], [80.57421, 9.12841], [80.60627, 9.1295], [80.63725, 9.11758], [80.64086, 9.08543], [80.66751, 9.08254], [80.67904, 9.06195], [80.66788, 9.0345], [80.69814, 9.04787], [80.72948, 9.04317], [80.76118, 9.02403], [80.77307, 9.00777], [80.75469, 8.93987]]]}}, {"type": "Feature", "properties": {"name": "Mullaitivu", "id": "mullaitivu", "province": "Northern"}, "geometry": {"type": "Polygon", "coordinates": [[[80.75469, 8.93987], [80.77307, 9.00777], [80.76118, 9.02403], [80.72948, 9.04317], [80.69814, 9.04787], [80.66788, 9.0345], [80.67904, 9.06195], [80.66751, 9.08254], [80.64086, 9.08543], [80.63725, 9.11758], [80.60627, 9.1295], [80.57421, 9.12841], [80.56989, 9.1183], [80.53351, 9.09302], [80.50901, 9.08218], [80.49388, 9.10493], [80.46902, 9.12083], [80.3977, 9.11938], [80.39481, 9.10457], [80.41715, 9.09193], [80.42291, 9.04064], [80.40526, 9.01391], [80.37752, 8.99116], [80.33105, 8.96226], [80.16678, 8.95395], [80.17975, 8.98971], [80.17038, 9.00561], [80.18696, 9.04967], [80.20857, 9.05726], [80.20785, 9.10132], [80.21253, 9.13094], [80.20965, 9.14539], [80.19128, 9.17465], [80.18515, 9.20752], [80.18407, 9.24183], [80.21037, 9.23858], [80.20785, 9.26639], [80.23379, 9.29998], [80.31016, 9.30865], [80.36419, 9.30432], [80.39049, 9.30648], [80.40742, 9.34983], [80.49136, 9.34947], [80.50793, 9.35886], [80.52198, 9.40401], [80.55368, 9.37945], [80.57637, 9.36716], [80.57637, 9.41304], [80.59799, 9.42929], [80.60483, 9.45096], [80.60988, 9.45457], [80.616, 9.45963], [80.73344, 9.36428], [80.75253, 9.33682], [80.78747, 9.2989], [80.77559, 9.29276], [80.75721, 9.30973], [80.73344, 9.31551], [80.73092, 9.30287], [80.78243, 9.25447], [80.8026, 9.24364], [80.78964, 9.26747], [80.79216, 9.27578], [80.81269, 9.2747], [80.82314, 9.24364], [80.87033, 9.149], [80.82854, 9.15984], [80.82314, 9.14539], [80.86132, 9.13022], [80.86385, 9.1071], [80.88474, 9.12011], [80.90455, 9.06556], [80.92328, 9.03667], [80.94634, 9.02114], [80.93229, 9.0038], [80.91896, 9.02439], [80.86385, 9.04498], [80.91104, 8.99224], [80.83971, 8.96407], [80.79396, 8.95793], [80.75469, 8.93987]]]}}, {"type": "Feature", "properties": {"name": "Kurunegala", "id": "kurunegala", "province": "North Western"}, "geometry": {"type": "Polygon", "coordinates": [[[80.48848, 7.81437], [80.48667, 7.78042], [80.50289, 7.7732], [80.52666, 7.72407], [80.53567, 7.69698], [80.54395, 7.63233], [80.56232, 7.61463], [80.55944, 7.58176], [80.54143, 7.56045], [80.53891, 7.53914], [80.56305, 7.48568], [80.55476, 7.4557], [80.53098, 7.4474], [80.54503, 7.42103], [80.51982, 7.41814], [80.50541, 7.41019], [80.50541, 7.38852], [80.48812, 7.3896], [80.47263, 7.4008], [80.45858, 7.4008], [80.44993, 7.35818], [80.41138, 7.35529], [80.38761, 7.3896], [80.36383, 7.39286], [80.34186, 7.38419], [80.33934, 7.34446], [80.32889, 7.32314], [80.26945, 7.31159], [80.24603, 7.30075], [80.20353, 7.2668], [80.18299, 7.25488], [80.1657, 7.26788], [80.14084, 7.29605], [80.12319, 7.32278], [80.09545, 7.31809], [80.07096, 7.30075], [80.04178, 7.29244], [80.0144, 7.31159], [79.99026, 7.31086], [79.95244, 7.28088], [79.93083, 7.27294], [79.92866, 7.33254], [79.89228, 7.53011], [79.89264, 7.59946], [79.90309, 7.62691], [79.92902, 7.67351], [79.95532, 7.68362], [79.93767, 7.6959], [79.94956, 7.72082], [79.97694, 7.72588], [79.99495, 7.73961], [79.98558, 7.76128], [79.98882, 7.78765], [80.00395, 7.83496], [80.02917, 7.84977], [80.03674, 7.87108], [80.05799, 7.88192], [80.06952, 7.91515], [80.09654, 7.92815], [80.1023, 7.95018], [80.12319, 7.93826], [80.1358, 7.94802], [80.12391, 7.97041], [80.13724, 7.99353], [80.13724, 8.04337], [80.14373, 8.0683], [80.11815, 8.08058], [80.10878, 8.09864], [80.09473, 8.15787], [80.09365, 8.19724], [80.11491, 8.18532], [80.20677, 8.14306], [80.24567, 8.13042], [80.26044, 8.11959], [80.31196, 8.10405], [80.35843, 8.0636], [80.37644, 8.0524], [80.39517, 8.05276], [80.4103, 8.04048], [80.4085, 8.0152], [80.41211, 7.95813], [80.44201, 7.95127], [80.45029, 7.93718], [80.46722, 7.87361], [80.46326, 7.83857], [80.48848, 7.81437]]]}}, {"type": "Feature", "properties": {"name": "Puttalam", "id": "puttalam", "province": "North Western"}, "geometry": {"type": "Polygon", "coordinates": [[[80.02413, 8.52955], [80.02989, 8.48801], [80.01152, 8.44972], [79.98054, 8.42444], [79.97477, 8.40818], [79.95784, 8.4006], [79.94668, 8.37568], [79.96145, 8.3475], [79.98594, 8.24637], [79.99207, 8.22867], [80.02953, 8.23625], [80.04754, 8.22289], [80.06772, 8.22361], [80.09365, 8.19724], [80.09473, 8.15787], [80.10878, 8.09864], [80.11815, 8.08058], [80.14373, 8.0683], [80.13724, 8.04337], [80.13724, 7.99353], [80.12391, 7.97041], [80.1358, 7.94802], [80.12319, 7.93826], [80.1023, 7.95018], [80.09654, 7.92815], [80.06952, 7.91515], [80.05799, 7.88192], [80.03674, 7.87108], [80.02917, 7.84977], [80.00395, 7.83496], [79.98882, 7.78765], [79.98558, 7.76128], [79.99495, 7.73961], [79.97694, 7.72588], [79.94956, 7.72082], [79.93767, 7.6959], [79.95532, 7.68362], [79.92902, 7.67351], [79.90309, 7.62691], [79.89264, 7.59946], [79.89228, 7.53011], [79.92866, 7.33254], [79.93083, 7.27294], [79.91353, 7.27944], [79.89876, 7.27041], [79.87931, 7.28052], [79.84149, 7.2733], [79.81771, 7.27438], [79.7752, 7.58935], [79.76908, 7.60235], [79.78349, 7.60235], [79.79249, 7.65906], [79.77952, 7.68832], [79.777, 7.74358], [79.75143, 7.86928], [79.73954, 7.89384], [79.72981, 7.94585], [79.7136, 7.98667], [79.68874, 8.10008], [79.68874, 8.13223], [79.69919, 8.14379], [79.69415, 8.20302], [79.6891, 8.22108], [79.70532, 8.23192], [79.73233, 8.27454], [79.74134, 8.30596], [79.77088, 8.3522], [79.75575, 8.3168], [79.73666, 8.28321], [79.74926, 8.26587], [79.77052, 8.2619], [79.75071, 8.21494], [79.7381, 8.20808], [79.7363, 8.16618], [79.71936, 8.11236], [79.72117, 8.08274], [79.7435, 8.05602], [79.72369, 8.01448], [79.75539, 7.99136], [79.8015, 7.98739], [79.82528, 8.004], [79.81015, 8.04121], [79.78781, 8.06324], [79.78493, 8.07408], [79.81879, 8.13801], [79.8051, 8.17304], [79.80546, 8.21458], [79.79682, 8.23084], [79.8033, 8.25142], [79.81663, 8.26876], [79.83068, 8.34281], [79.84041, 8.44069], [79.85806, 8.46381], [79.86058, 8.52016], [79.86634, 8.54074], [79.90525, 8.5747], [79.94271, 8.55808], [79.97225, 8.55519], [80.02413, 8.52955]]]}}, {"type": "Feature", "properties": {"name": "Ratnapura", "id": "ratnapura", "province": "Sabaragamuwa"}, "geometry": {"type": "Polygon", "coordinates": [[[80.48487, 6.82794], [80.491, 6.8041], [80.47983, 6.78677], [80.50036, 6.77087], [80.52486, 6.76907], [80.57673, 6.75715], [80.63149, 6.74992], [80.67724, 6.75534], [80.71038, 6.75426], [80.74172, 6.75823], [80.79828, 6.78785], [80.80116, 6.75101], [80.81593, 6.75751], [80.82962, 6.7427], [80.84691, 6.73728], [80.83755, 6.71633], [80.81017, 6.70405], [80.80549, 6.69069], [80.83142, 6.66179], [80.85412, 6.65746], [80.87825, 6.66721], [80.89879, 6.68238], [80.91716, 6.6831], [80.90059, 6.65854], [80.89014, 6.63253], [80.87213, 6.6105], [80.8624, 6.58847], [80.85268, 6.54476], [80.81846, 6.4895], [80.82782, 6.45735], [80.8289, 6.39523], [80.85412, 6.35477], [80.89158, 6.33202], [80.90888, 6.29012], [80.92725, 6.26989], [80.93661, 6.24425], [80.93157, 6.22655], [80.87393, 6.24099], [80.84691, 6.26628], [80.80873, 6.25978], [80.78964, 6.26303], [80.71615, 6.2894], [80.65887, 6.30059], [80.66427, 6.3154], [80.6513, 6.32479], [80.64086, 6.34791], [80.59907, 6.34719], [80.60555, 6.36525], [80.59114, 6.39161], [80.53026, 6.38584], [80.52306, 6.36958], [80.48379, 6.36236], [80.47551, 6.37464], [80.4593, 6.37428], [80.42796, 6.38945], [80.39625, 6.39667], [80.37068, 6.42087], [80.33429, 6.48372], [80.29215, 6.54296], [80.28674, 6.55993], [80.30187, 6.56571], [80.28746, 6.59352], [80.26513, 6.61375], [80.24027, 6.62964], [80.23415, 6.6589], [80.20389, 6.68816], [80.18768, 6.72717], [80.18912, 6.74342], [80.17183, 6.78929], [80.16858, 6.80988], [80.19056, 6.82975], [80.16606, 6.85575], [80.17543, 6.8814], [80.1992, 6.91427], [80.21469, 6.92149], [80.28386, 6.85142], [80.30115, 6.85756], [80.31304, 6.83914], [80.3379, 6.83372], [80.36852, 6.8507], [80.39589, 6.85142], [80.44525, 6.83011], [80.48487, 6.82794]]]}}, {"type": "Feature", "properties": {"name": "Galle", "id": "galle", "province": "Southern"}, "geometry": {"type": "Polygon", "coordinates": [[[80.37068, 6.42087], [80.39625, 6.39667], [80.42796, 6.38945], [80.4593, 6.37428], [80.47551, 6.37464], [80.48379, 6.36236], [80.46326, 6.35622], [80.44993, 6.34249], [80.47695, 6.30926], [80.47118, 6.28073], [80.4402, 6.28795], [80.39986, 6.32154], [80.36744, 6.32226], [80.37716, 6.30348], [80.39698, 6.29084], [80.41823, 6.26086], [80.42579, 6.23196], [80.40814, 6.21065], [80.37284, 6.21679], [80.38797, 6.18826], [80.37176, 6.14817], [80.37824, 6.1283], [80.42724, 6.08749], [80.3977, 6.05534], [80.38401, 6.04956], [80.38112, 6.02969], [80.4067, 6.01814], [80.40058, 6.00585], [80.38257, 5.99935], [80.37104, 5.97985], [80.3732, 5.95745], [80.34654, 5.9719], [80.32925, 5.96432], [80.31556, 5.97876], [80.26549, 5.99682], [80.23559, 6.00297], [80.1992, 6.02753], [80.192, 6.01994], [80.17327, 6.03511], [80.09185, 6.12144], [80.06628, 6.1637], [80.02016, 6.26122], [80.01872, 6.28723], [80.00864, 6.30962], [80.00035, 6.35658], [79.98198, 6.38945], [79.97045, 6.4364], [79.98846, 6.42196], [80.00503, 6.43062], [80.01764, 6.41509], [80.05439, 6.39775], [80.09221, 6.38547], [80.12499, 6.36019], [80.16858, 6.35188], [80.19596, 6.36705], [80.22622, 6.36958], [80.28674, 6.31974], [80.2889, 6.3396], [80.28134, 6.36163], [80.28134, 6.38295], [80.33465, 6.41256], [80.37068, 6.42087]]]}}, {"type": "Feature", "properties": {"name": "Hambantota", "id": "hambantota", "province": "Southern"}, "geometry": {"type": "Polygon", "coordinates": [[[81.70176, 6.50611], [81.67114, 6.45807], [81.6398, 6.42629], [81.5818, 6.38511], [81.53749, 6.36597], [81.35161, 6.22005], [81.3145, 6.19982], [81.19382, 6.15684], [81.19202, 6.17237], [81.17725, 6.17598], [81.17149, 6.1507], [81.10196, 6.11421], [80.99785, 6.09182], [80.94742, 6.07448], [80.89194, 6.06437], [80.86673, 6.05462], [80.85124, 6.03331], [80.82422, 6.03872], [80.79792, 6.02861], [80.71867, 5.96901], [80.68733, 5.98382], [80.6758, 6.00188], [80.68337, 6.01416], [80.6513, 6.02897], [80.64878, 6.04486], [80.6812, 6.05895], [80.6704, 6.09724], [80.68301, 6.11458], [80.66031, 6.11494], [80.64374, 6.12397], [80.6405, 6.14094], [80.65094, 6.16045], [80.6178, 6.17128], [80.60051, 6.18356], [80.61276, 6.22691], [80.65094, 6.2558], [80.64446, 6.2717], [80.65887, 6.30059], [80.71615, 6.2894], [80.78964, 6.26303], [80.80873, 6.25978], [80.84691, 6.26628], [80.87393, 6.24099], [80.93157, 6.22655], [80.93661, 6.24425], [80.92725, 6.26989], [80.90888, 6.29012], [80.95895, 6.31974], [80.98705, 6.32913], [81.00866, 6.34538], [80.9993, 6.36814], [81.00398, 6.39089], [81.03028, 6.39161], [81.0382, 6.41654], [81.05045, 6.40787], [81.06018, 6.4187], [81.10989, 6.41581], [81.12718, 6.40967], [81.13475, 6.39125], [81.15528, 6.39053], [81.17725, 6.39848], [81.21112, 6.34791], [81.23633, 6.3378], [81.27344, 6.36236], [81.31811, 6.37644], [81.37755, 6.39956], [81.42654, 6.41329], [81.45428, 6.40678], [81.46725, 6.4281], [81.46653, 6.44507], [81.47553, 6.45844], [81.46977, 6.48878], [81.48958, 6.50467], [81.51336, 6.51551], [81.55262, 6.5491], [81.57964, 6.55415], [81.59765, 6.57474], [81.62755, 6.53826], [81.65169, 6.53573], [81.66862, 6.51659], [81.70176, 6.50611]]]}}, {"type": "Feature", "properties": {"name": "Matara", "id": "matara", "province": "Southern"}, "geometry": {"type": "Polygon", "coordinates": [[[80.65887, 6.30059], [80.64446, 6.2717], [80.65094, 6.2558], [80.61276, 6.22691], [80.60051, 6.18356], [80.6178, 6.17128], [80.65094, 6.16045], [80.6405, 6.14094], [80.64374, 6.12397], [80.66031, 6.11494], [80.68301, 6.11458], [80.6704, 6.09724], [80.6812, 6.05895], [80.64878, 6.04486], [80.6513, 6.02897], [80.68337, 6.01416], [80.6758, 6.00188], [80.68733, 5.98382], [80.71867, 5.96901], [80.70318, 5.95131], [80.64518, 5.95131], [80.6178, 5.93831], [80.59331, 5.92025], [80.57962, 5.917], [80.5281, 5.93759], [80.4701, 5.93073], [80.45353, 5.93398], [80.43228, 5.96432], [80.41535, 5.95456], [80.3732, 5.95745], [80.37104, 5.97985], [80.38257, 5.99935], [80.40058, 6.00585], [80.4067, 6.01814], [80.38112, 6.02969], [80.38401, 6.04956], [80.3977, 6.05534], [80.42724, 6.08749], [80.37824, 6.1283], [80.37176, 6.14817], [80.38797, 6.18826], [80.37284, 6.21679], [80.40814, 6.21065], [80.42579, 6.23196], [80.41823, 6.26086], [80.39698, 6.29084], [80.37716, 6.30348], [80.36744, 6.32226], [80.39986, 6.32154], [80.4402, 6.28795], [80.47118, 6.28073], [80.47695, 6.30926], [80.44993, 6.34249], [80.46326, 6.35622], [80.48379, 6.36236], [80.52306, 6.36958], [80.53026, 6.38584], [80.59114, 6.39161], [80.60555, 6.36525], [80.59907, 6.34719], [80.64086, 6.34791], [80.6513, 6.32479], [80.66427, 6.3154], [80.65887, 6.30059]]]}}, {"type": "Feature", "properties": {"name": "Badulla", "id": "badulla", "province": "Uva"}, "geometry": {"type": "Polygon", "coordinates": [[[80.91716, 6.6831], [80.89879, 6.68238], [80.87825, 6.66721], [80.85412, 6.65746], [80.83142, 6.66179], [80.80549, 6.69069], [80.81017, 6.70405], [80.83755, 6.71633], [80.84691, 6.73728], [80.82962, 6.7427], [80.81593, 6.75751], [80.80116, 6.75101], [80.79828, 6.78785], [80.81737, 6.79254], [80.82746, 6.80699], [80.80909, 6.81747], [80.82386, 6.84131], [80.8026, 6.88393], [80.77054, 6.89982], [80.76946, 6.91571], [80.80621, 6.91571], [80.81954, 6.93088], [80.82458, 6.95075], [80.85844, 6.97387], [80.89627, 6.98217], [80.9186, 7.01504], [80.93229, 7.05225], [80.94994, 7.07536], [80.9431, 7.10029], [80.95463, 7.11798], [80.9467, 7.12846], [80.93914, 7.17108], [80.93986, 7.18914], [80.97408, 7.20287], [81.0011, 7.22779], [81.0029, 7.2603], [80.98092, 7.3329], [80.97192, 7.4846], [80.96723, 7.56659], [80.9766, 7.61355], [80.99461, 7.60163], [81.01046, 7.54709], [81.03496, 7.50627], [81.07531, 7.51964], [81.09656, 7.53914], [81.14555, 7.56659], [81.18986, 7.5572], [81.19346, 7.50699], [81.18302, 7.45823], [81.17473, 7.43873], [81.18842, 7.36974], [81.19959, 7.34626], [81.21436, 7.33145], [81.23525, 7.33145], [81.25543, 7.2928], [81.25903, 7.27474], [81.22012, 7.26535], [81.22012, 7.24476], [81.21256, 7.22562], [81.17617, 7.17578], [81.1596, 7.16855], [81.14555, 7.18372], [81.12898, 7.18553], [81.11745, 7.16783], [81.11421, 7.1476], [81.14231, 7.11654], [81.16392, 7.08367], [81.20067, 7.09342], [81.22445, 7.06597], [81.23237, 7.0201], [81.22408, 6.97423], [81.21184, 6.95292], [81.20427, 6.92258], [81.18122, 6.92402], [81.14807, 6.88718], [81.10088, 6.86803], [81.12538, 6.83408], [81.09656, 6.82541], [81.08791, 6.80844], [81.05405, 6.80555], [81.05369, 6.76293], [81.04505, 6.74487], [81.04901, 6.73186], [81.06666, 6.72717], [81.06774, 6.70947], [81.05297, 6.68635], [81.05117, 6.65637], [81.06054, 6.62856], [81.07531, 6.60508], [81.05441, 6.5975], [81.05153, 6.57366], [81.02992, 6.58594], [81.01587, 6.56391], [81.0119, 6.53754], [80.99137, 6.56571], [80.98705, 6.5975], [80.97336, 6.60508], [80.95715, 6.64734], [80.9413, 6.65312], [80.92905, 6.68274], [80.91716, 6.6831]]]}}, {"type": "Feature", "properties": {"name": "Moneragala", "id": "moneragala", "province": "Uva"}, "geometry": {"type": "Polygon", "coordinates": [[[81.59765, 6.57474], [81.57964, 6.55415], [81.55262, 6.5491], [81.51336, 6.51551], [81.48958, 6.50467], [81.46977, 6.48878], [81.47553, 6.45844], [81.46653, 6.44507], [81.46725, 6.4281], [81.45428, 6.40678], [81.42654, 6.41329], [81.37755, 6.39956], [81.31811, 6.37644], [81.27344, 6.36236], [81.23633, 6.3378], [81.21112, 6.34791], [81.17725, 6.39848], [81.15528, 6.39053], [81.13475, 6.39125], [81.12718, 6.40967], [81.10989, 6.41581], [81.06018, 6.4187], [81.05045, 6.40787], [81.0382, 6.41654], [81.03028, 6.39161], [81.00398, 6.39089], [80.9993, 6.36814], [81.00866, 6.34538], [80.98705, 6.32913], [80.95895, 6.31974], [80.90888, 6.29012], [80.89158, 6.33202], [80.85412, 6.35477], [80.8289, 6.39523], [80.82782, 6.45735], [80.81846, 6.4895], [80.85268, 6.54476], [80.8624, 6.58847], [80.87213, 6.6105], [80.89014, 6.63253], [80.90059, 6.65854], [80.91716, 6.6831], [80.92905, 6.68274], [80.9413, 6.65312], [80.95715, 6.64734], [80.97336, 6.60508], [80.98705, 6.5975], [80.99137, 6.56571], [81.0119, 6.53754], [81.01587, 6.56391], [81.02992, 6.58594], [81.05153, 6.57366], [81.05441, 6.5975], [81.07531, 6.60508], [81.06054, 6.62856], [81.05117, 6.65637], [81.05297, 6.68635], [81.06774, 6.70947], [81.06666, 6.72717], [81.04901, 6.73186], [81.04505, 6.74487], [81.05369, 6.76293], [81.05405, 6.80555], [81.08791, 6.80844], [81.09656, 6.82541], [81.12538, 6.83408], [81.10088, 6.86803], [81.14807, 6.88718], [81.18122, 6.92402], [81.20427, 6.92258], [81.21184, 6.95292], [81.22408, 6.97423], [81.23237, 7.0201], [81.22445, 7.06597], [81.20067, 7.09342], [81.16392, 7.08367], [81.14231, 7.11654], [81.11421, 7.1476], [81.11745, 7.16783], [81.12898, 7.18553], [81.14555, 7.18372], [81.1596, 7.16855], [81.17617, 7.17578], [81.21256, 7.22562], [81.22012, 7.24476], [81.22012, 7.26535], [81.25903, 7.27474], [81.2756, 7.23899], [81.3145, 7.25957], [81.3091, 7.29714], [81.3091, 7.33543], [81.33396, 7.33434], [81.35413, 7.34554], [81.36998, 7.37082], [81.36314, 7.40766], [81.38727, 7.412], [81.39772, 7.43223], [81.44599, 7.45462], [81.46545, 7.44956], [81.45068, 7.42645], [81.46364, 7.42175], [81.46184, 7.40803], [81.47373, 7.35529], [81.47625, 7.31195], [81.49859, 7.2928], [81.51228, 7.2686], [81.51552, 7.24693], [81.53713, 7.21731], [81.50003, 7.17975], [81.4885, 7.14869], [81.51336, 7.09595], [81.54001, 7.08403], [81.57568, 7.075], [81.60522, 7.0573], [81.59873, 7.01865], [81.60594, 6.98001], [81.62287, 6.94316], [81.59765, 6.57474]]]}}, {"type": "Feature", "properties": {"name": "Kegalle", "id": "kegalle", "province": "Sabaragamuwa"}, "geometry": {"type": "Polygon", "coordinates": [[[80.41138, 7.35529], [80.42363, 7.32459], [80.46686, 7.28666], [80.46506, 7.26716], [80.49892, 7.24729], [80.51117, 7.23248], [80.50901, 7.19998], [80.53495, 7.17108], [80.52162, 7.14543], [80.49964, 7.14218], [80.48379, 7.12521], [80.44921, 7.11979], [80.43804, 7.10932], [80.46038, 7.06055], [80.45245, 7.02516], [80.44849, 7.0071], [80.42147, 6.9847], [80.43336, 6.97062], [80.42615, 6.93341], [80.4348, 6.90415], [80.46398, 6.89476], [80.48703, 6.87779], [80.4964, 6.83806], [80.48487, 6.82794], [80.44525, 6.83011], [80.39589, 6.85142], [80.36852, 6.8507], [80.3379, 6.83372], [80.31304, 6.83914], [80.30115, 6.85756], [80.28386, 6.85142], [80.21469, 6.92149], [80.1992, 6.91427], [80.1974, 6.93377], [80.21073, 6.94605], [80.20749, 6.96447], [80.1902, 6.97314], [80.16858, 6.97459], [80.17147, 6.99229], [80.1567, 7.0396], [80.16174, 7.06886], [80.17471, 7.09812], [80.18912, 7.10823], [80.19668, 7.12521], [80.17543, 7.13135], [80.15129, 7.12557], [80.13904, 7.15085], [80.14337, 7.17903], [80.17219, 7.19961], [80.17471, 7.23393], [80.18299, 7.25488], [80.20353, 7.2668], [80.24603, 7.30075], [80.26945, 7.31159], [80.32889, 7.32314], [80.33934, 7.34446], [80.34186, 7.38419], [80.36383, 7.39286], [80.38761, 7.3896], [80.41138, 7.35529]]]}}, {"type": "Feature", "properties": {"name": "Colombo", "id": "colombo", "province": "Western"}, "geometry": {"type": "Polygon", "coordinates": [[[80.1992, 6.91427], [80.17543, 6.8814], [80.16606, 6.85575], [80.19056, 6.82975], [80.16858, 6.80988], [80.1394, 6.81674], [80.10662, 6.80302], [80.11311, 6.77412], [80.09365, 6.77918], [80.08068, 6.80916], [80.06916, 6.81349], [80.04142, 6.7911], [80.01908, 6.79507], [79.98054, 6.7622], [79.92902, 6.74378], [79.88291, 6.77232], [79.88147, 6.7557], [79.89084, 6.72428], [79.88904, 6.70839], [79.85193, 6.8041], [79.83716, 6.88754], [79.83824, 6.96231], [79.89408, 6.941], [79.91101, 6.94894], [79.96073, 6.9345], [79.99495, 6.93919], [80.02052, 6.91969], [80.04322, 6.90885], [80.08249, 6.90777], [80.08753, 6.94641], [80.10374, 6.96195], [80.12319, 6.97134], [80.15057, 6.96845], [80.16858, 6.97459], [80.1902, 6.97314], [80.20749, 6.96447], [80.21073, 6.94605], [80.1974, 6.93377], [80.1992, 6.91427]]]}}, {"type": "Feature", "properties": {"name": "Gampaha", "id": "gampaha", "province": "Western"}, "geometry": {"type": "Polygon", "coordinates": [[[80.18299, 7.25488], [80.17471, 7.23393], [80.17219, 7.19961], [80.14337, 7.17903], [80.13904, 7.15085], [80.15129, 7.12557], [80.17543, 7.13135], [80.19668, 7.12521], [80.18912, 7.10823], [80.17471, 7.09812], [80.16174, 7.06886], [80.1567, 7.0396], [80.17147, 6.99229], [80.16858, 6.97459], [80.15057, 6.96845], [80.12319, 6.97134], [80.10374, 6.96195], [80.08753, 6.94641], [80.08249, 6.90777], [80.04322, 6.90885], [80.02052, 6.91969], [79.99495, 6.93919], [79.96073, 6.9345], [79.91101, 6.94894], [79.89408, 6.941], [79.83824, 6.96231], [79.84833, 6.98615], [79.85085, 7.00962], [79.8033, 7.17903], [79.80942, 7.18842], [79.82347, 7.16277], [79.83284, 7.12918], [79.84365, 7.12087], [79.85121, 7.1346], [79.85121, 7.16566], [79.84401, 7.19022], [79.826, 7.196], [79.81591, 7.20864], [79.82347, 7.23104], [79.81771, 7.27438], [79.84149, 7.2733], [79.87931, 7.28052], [79.89876, 7.27041], [79.91353, 7.27944], [79.93083, 7.27294], [79.95244, 7.28088], [79.99026, 7.31086], [80.0144, 7.31159], [80.04178, 7.29244], [80.07096, 7.30075], [80.09545, 7.31809], [80.12319, 7.32278], [80.14084, 7.29605], [80.1657, 7.26788], [80.18299, 7.25488]]]}}, {"type": "Feature", "properties": {"name": "Kalutara", "id": "kalutara", "province": "Western"}, "geometry": {"type": "Polygon", "coordinates": [[[80.16858, 6.80988], [80.17183, 6.78929], [80.18912, 6.74342], [80.18768, 6.72717], [80.20389, 6.68816], [80.23415, 6.6589], [80.24027, 6.62964], [80.26513, 6.61375], [80.28746, 6.59352], [80.30187, 6.56571], [80.28674, 6.55993], [80.29215, 6.54296], [80.33429, 6.48372], [80.37068, 6.42087], [80.33465, 6.41256], [80.28134, 6.38295], [80.28134, 6.36163], [80.2889, 6.3396], [80.28674, 6.31974], [80.22622, 6.36958], [80.19596, 6.36705], [80.16858, 6.35188], [80.12499, 6.36019], [80.09221, 6.38547], [80.05439, 6.39775], [80.01764, 6.41509], [80.00503, 6.43062], [79.98846, 6.42196], [79.97045, 6.4364], [79.95352, 6.47325], [79.96613, 6.47433], [79.95784, 6.53104], [79.88904, 6.70839], [79.89084, 6.72428], [79.88147, 6.7557], [79.88291, 6.77232], [79.92902, 6.74378], [79.98054, 6.7622], [80.01908, 6.79507], [80.04142, 6.7911], [80.06916, 6.81349], [80.08068, 6.80916], [80.09365, 6.77918], [80.11311, 6.77412], [80.10662, 6.80302], [80.1394, 6.81674], [80.16858, 6.80988]]]}}]}